      2.10          N: GNSS NAV DATA                        RINEX VERSION / TYPE
fic2rin                                 02/10/2019 00:18:36 PGM / RUN BY / DATE
                                                            END OF HEADER
12 19  2  9 22  0  0.0 2.693007700145e-04-3.183231456205e-12 0.000000000000e+00
    4.900000000000e+01-3.615625000000e+01 4.084813006001e-09-2.898670700218e+00
   -1.847743988037e-06 7.414634339511e-03 8.184462785721e-06 5.153703678131e+03
    5.976000000000e+05 1.154839992523e-07-3.011345329477e+00-1.806765794754e-07
    9.843023234798e-01 2.309375000000e+02 1.029906076499e+00-7.794967548830e-09
   -3.414427938915e-10 1.000000000000e+00 2.039000000000e+03 0.000000000000e+00
    2.400000000000e+00 0.000000000000e+00-1.257285475731e-08 4.900000000000e+01
    5.904000000000e+05 4.000000000000e+00
 9 19  2  9 22  0  0.0 4.607453010976e-04-5.115907697473e-12 0.000000000000e+00
    6.600000000000e+01 1.371875000000e+01 4.527331438670e-09 9.644235547864e-01
    7.227063179016e-07 1.469122595154e-03 1.116842031479e-05 5.153742427826e+03
    5.976000000000e+05-5.587935447693e-09 1.097137076437e+00-1.303851604462e-08
    9.524729433498e-01 1.564687500000e+02 1.717110028754e+00-8.039977754488e-09
    2.396528396456e-10 1.000000000000e+00 2.039000000000e+03 0.000000000000e+00
    2.400000000000e+00 0.000000000000e+00 1.396983861923e-09 6.600000000000e+01
    5.904000000000e+05 4.000000000000e+00
31 19  2  9 22  0  0.0 5.978252738714e-05-2.614797267597e-12 0.000000000000e+00
    7.000000000000e+01 3.371875000000e+01 4.935205571121e-09-2.598922840985e+00
    1.741573214531e-06 9.250853094272e-03 5.217269062996e-06 5.153557415009e+03
    5.976000000000e+05-1.639127731323e-07 2.187704225817e+00-5.960464477539e-08
    9.605810483078e-01 2.826562500000e+02-1.835072003829e-02-8.247129240322e-09
    1.500062483624e-10 1.000000000000e+00 2.039000000000e+03 0.000000000000e+00
    2.400000000000e+00 0.000000000000e+00-1.350417733192e-08 7.000000000000e+01
    5.904000000000e+05 4.000000000000e+00
29 19  2  9 22  0  0.0 2.741464413702e-04-8.640199666843e-12 0.000000000000e+00
    3.600000000000e+01 3.881250000000e+01 3.774442934984e-09 1.404958638647e+00
    1.860782504082e-06 6.819970440120e-04 9.514391422272e-06 5.153570943832e+03
    5.976000000000e+05-2.048909664154e-08-1.967259059299e+00-1.862645149231e-08
    9.851679686803e-01 2.089062500000e+02 1.457773483534e+00-7.717821478243e-09
    6.893144269984e-11 1.000000000000e+00 2.039000000000e+03 0.000000000000e+00
    2.400000000000e+00 0.000000000000e+00-1.024454832077e-08 3.600000000000e+01
    5.904000000000e+05 4.000000000000e+00
20 19  2  9 22  0  0.0 5.220407620072e-04 3.410605131648e-13 0.000000000000e+00
    5.900000000000e+01-6.959375000000e+01 5.195216401616e-09-1.872374982654e+00
   -3.464519977570e-06 4.421679186635e-03 6.854534149170e-06 5.153674808502e+03
    5.976000000000e+05-9.685754776001e-08-5.325281769075e-02 4.470348358154e-08
    9.303545333892e-01 2.329375000000e+02 2.274393183137e+00-8.483210502625e-09
   -1.678641350722e-10 1.000000000000e+00 2.039000000000e+03 0.000000000000e+00
    2.400000000000e+00 0.000000000000e+00-8.381903171539e-09 5.900000000000e+01
    5.904000000000e+05 4.000000000000e+00
28 19  2  9 22  0  0.0 7.642060518265e-04 9.094947017729e-13 0.000000000000e+00
    3.600000000000e+01-3.825000000000e+01 4.133386457851e-09 1.442036168629e+00
   -2.361834049225e-06 1.932612748351e-02 7.970258593559e-06 5.153699518204e+03
    5.976000000000e+05 6.519258022308e-08-2.988420077771e+00-4.936009645462e-07
    9.836042336016e-01 2.398750000000e+02-1.474370609522e+00-7.923544333140e-09
   -3.753727786401e-10 1.000000000000e+00 2.039000000000e+03 0.000000000000e+00
    2.400000000000e+00 0.000000000000e+00-1.117587089539e-08 3.600000000000e+01
    5.904000000000e+05 4.000000000000e+00
27 19  2  9 22  0  0.0-6.460445001721e-05-7.162270776462e-12 0.000000000000e+00
    8.600000000000e+01 4.062500000000e+01 4.019453140643e-09 6.119101495424e-01
    2.244487404823e-06 6.644293549471e-03 1.000240445137e-05 5.153639709473e+03
    5.976000000000e+05 2.607703208923e-08-2.033773315691e+00 9.872019290924e-08
    9.783427975273e-01 1.917500000000e+02 4.267631379520e-01-7.907829392835e-09
   -1.035757429169e-11 1.000000000000e+00 2.039000000000e+03 0.000000000000e+00
    2.400000000000e+00 0.000000000000e+00 1.396983861923e-09 8.600000000000e+01
    5.904000000000e+05 4.000000000000e+00
25 19  2  9 22  0  0.0-7.181414403021e-04-5.456968210638e-12 0.000000000000e+00
    4.500000000000e+01-3.200000000000e+01 4.319108479633e-09 3.074619484186e+00
   -1.758337020874e-06 8.165942272171e-03 7.923692464828e-06 5.153759229660e+03
    5.976000000000e+05-7.078051567078e-08-3.074294988475e+00-1.806765794754e-07
    9.717666281978e-01 2.302187500000e+02 8.539167170359e-01-7.890685821594e-09
   -3.885876148053e-10 1.000000000000e+00 2.039000000000e+03 0.000000000000e+00
    2.400000000000e+00 0.000000000000e+00 5.587935447693e-09 4.500000000000e+01
    5.904000000000e+05 4.000000000000e+00
24 19  2  9 22  0  0.0-6.194505840540e-05-5.684341886081e-13 0.000000000000e+00
    2.700000000000e+01 3.681250000000e+01 5.365937798562e-09-1.270698252288e+00
    1.931563019753e-06 8.155472925864e-03 4.939734935760e-06 5.153726219177e+03
    5.976000000000e+05 1.434236764908e-07 2.109926041494e+00-3.539025783539e-08
    9.391018691795e-01 2.706875000000e+02 5.929910902191e-01-8.538927109160e-09
    2.403671551140e-10 1.000000000000e+00 2.039000000000e+03 0.000000000000e+00
    3.400000000000e+00 0.000000000000e+00 2.793967723846e-09 2.700000000000e+01
    5.904000000000e+05 4.000000000000e+00
23 19  2  9 22  0  0.0-1.977710053325e-04 1.250555214938e-12 0.000000000000e+00
    9.800000000000e+01 2.040625000000e+01 4.827701093128e-09-8.093843101282e-01
    1.274049282074e-06 1.277312508319e-02 1.105666160583e-05 5.153645824432e+03
    5.976000000000e+05 1.285225152969e-07 1.093046470756e+00 2.626329660416e-07
    9.432897793942e-01 1.559062500000e+02-2.300859371000e+00-8.274987543589e-09
    2.321525272275e-10 1.000000000000e+00 2.039000000000e+03 0.000000000000e+00
    2.400000000000e+00 0.000000000000e+00-2.002343535423e-08 9.800000000000e+01
    5.904000000000e+05 4.000000000000e+00
26 19  2  9 22  0  0.0 1.200730912387e-04 1.034550223267e-11 0.000000000000e+00
    5.700000000000e+01-3.418750000000e+01 4.899489797702e-09 2.369811840770e+00
   -1.698732376099e-06 3.640290349722e-03 7.821246981621e-06 5.153796848297e+03
    5.976000000000e+05-1.229345798492e-07-3.100887178935e+00 7.078051567078e-08
    9.531121917371e-01 2.260937500000e+02 1.204266380129e-01-8.231414300017e-09
   -3.728726745007e-10 1.000000000000e+00 2.039000000000e+03 0.000000000000e+00
    2.400000000000e+00 0.000000000000e+00 7.450580596924e-09 5.700000000000e+01
    5.904000000000e+05 4.000000000000e+00
 4 19  2  9 22  0  0.0 1.093191094697e-04 9.890754881781e-12 0.000000000000e+00
    1.670000000000e+02 1.515625000000e+01 4.352681306648e-09-2.375848439098e+00
    7.562339305878e-07 3.123912028968e-04 1.098588109016e-05 5.153587633133e+03
    5.976000000000e+05 1.862645149231e-08 1.141545578573e+00 9.313225746155e-09
    9.598188562851e-01 1.627812500000e+02-1.519649504027e+00-7.938187800242e-09
    2.700112470522e-10 1.000000000000e+00 2.039000000000e+03 0.000000000000e+00
    3.400000000000e+00 6.300000000000e+01-8.847564458847e-09 4.230000000000e+02
    5.904600000000e+05 4.000000000000e+00
 2 19  2 10  0  0  0.0-1.357467845082e-04-9.890754881781e-12 0.000000000000e+00
    4.800000000000e+01 2.328125000000e+01 5.086640450421e-09-2.121940803352e-01
    1.300126314163e-06 1.886271429248e-02 5.196779966354e-06 5.153642396927e+03
    0.000000000000e+00-2.011656761169e-07-1.164678147714e+00 1.695007085800e-07
    9.532358785348e-01 2.805312500000e+02-1.776189428253e+00-8.805723936604e-09
    1.960795960737e-10 1.000000000000e+00 2.040000000000e+03 0.000000000000e+00
    2.400000000000e+00 0.000000000000e+00-2.048909664154e-08 4.800000000000e+01
   -7.200000000000e+03 4.000000000000e+00
 1 19  2 10  0  0  0.0-1.603947021067e-04-6.821210263297e-12 0.000000000000e+00
    1.100000000000e+02 1.262500000000e+01 4.557332688342e-09-5.243393378895e-01
    6.314367055893e-07 8.367093047127e-03 4.375353455544e-06 5.153655872345e+03
    0.000000000000e+00 7.264316082001e-08-1.098142026549e+00 1.322478055954e-07
    9.741579623665e-01 3.005000000000e+02 6.850527838839e-01-8.377134655569e-09
    7.036007363663e-11 1.000000000000e+00 2.040000000000e+03 0.000000000000e+00
    3.400000000000e+00 0.000000000000e+00 5.587935447693e-09 1.100000000000e+02
   -7.200000000000e+03 4.000000000000e+00
 8 19  2 10  0  0  0.0-1.321546733379e-04-1.364242052659e-12 0.000000000000e+00
    7.400000000000e+01 3.756250000000e+01 4.248748405997e-09 1.982654000172e+00
    2.181157469749e-06 4.251692909747e-03 9.944662451744e-06 5.153698108673e+03
    0.000000000000e+00 9.126961231232e-08-2.164760842704e+00 7.264316082001e-08
    9.700907297270e-01 1.907812500000e+02-3.545995951822e-01-7.925330121811e-09
    1.642925577302e-11 1.000000000000e+00 2.040000000000e+03 0.000000000000e+00
    2.400000000000e+00 0.000000000000e+00 5.122274160385e-09 7.400000000000e+01
   -7.200000000000e+03 4.000000000000e+00
 5 19  2 10  0  0  0.0 1.055654138327e-06 1.136868377216e-13 0.000000000000e+00
    5.600000000000e+01-7.037500000000e+01 4.845201822104e-09 2.409903741250e+00
   -3.701075911522e-06 5.545892869122e-03 7.085502147675e-06 5.153624935150e+03
    0.000000000000e+00 0.000000000000e+00-8.098313208394e-02-7.264316082001e-08
    9.496180192193e-01 2.391250000000e+02 7.165983037786e-01-8.274273228121e-09
   -2.660825119761e-10 1.000000000000e+00 2.040000000000e+03 0.000000000000e+00
    2.400000000000e+00 0.000000000000e+00-1.117587089539e-08 5.600000000000e+01
   -7.200000000000e+03 4.000000000000e+00
